FENGYUN 3D              
1 43010U 17072A   26170.61397687  .00000042  00000+0  41632-4 0  9993
2 43010  99.0132 145.0805 0002487  59.4790 300.6630 14.19739875445333
NOAA 20 (JPSS-1)        
1 43013U 17073A   26170.53884358  .00000042  00000+0  40904-4 0  9995
2 43013  98.7770 109.9806 0000334 113.8592 246.2619 14.19512128444807
GOES 17                 
1 43226U 18022A   26170.51877536 -.00000188  00000+0  00000+0 0  9994
2 43226   0.9441  85.6659 0000544  28.2288 251.0785  1.00269516 30448
SENTINEL-3B             
1 43437U 18039A   26170.43386687  .00000072  00000+0  47687-4 0  9997
2 43437  98.6248 237.9340 0000720  92.8597 267.2666 14.26735265424441
FENGYUN 2H              
1 43491U 18050A   26170.62357421 -.00000136  00000+0  00000+0 0  9990
2 43491   3.0385  79.0443 0001937 138.1032 354.5707  1.00269375 29462
METOP-C                 
1 43689U 18087A   26170.53160566  .00000071  00000+0  52220-4 0  9994
2 43689  98.6644 230.0924 0001845 126.4901 233.6447 14.21512682395165
GEO-KOMPSAT-2A          
1 43823U 18100A   26169.92030550 -.00000350  00000+0  00000+0 0  9995
2 43823   0.0487 155.6876 0001856 291.5734 279.4528  1.00269167 27648
METEOR-M2 2             
1 44387U 19038A   26170.56279486  .00000020  00000+0  28327-4 0  9997
2 44387  98.9147 157.8835 0001992  44.0778 316.0559 14.24366603361637
ARKTIKA-M 1             
1 47719U 21016A   26168.49069990 -.00000210  00000+0  00000+0 0  9999
2 47719  63.2922  57.5948 7288528 269.9420  14.6012  2.00622504 38796
FENGYUN 3E              
1 49008U 21062A   26170.59757235 -.00000250  00000+0 -97174-4 0  9991
2 49008  98.7491 173.9789 0002860  81.5504 278.5996 14.19903605256922
GOES 18                 
1 51850U 22021A   26170.51989289  .00000091  00000+0  00000+0 0  9991
2 51850   0.0356 172.5653 0000406 328.1656 177.1607  1.00271719  6615
NOAA 21 (JPSS-2)        
1 54234U 22150A   26170.57165935  .00000048  00000+0  43506-4 0  9998
2 54234  98.7058 109.3209 0001800 148.7419 211.3865 14.19565817186888
METEOSAT-12 (MTG-I1)    
1 54743U 22170C   26170.25128105 -.00000014  00000+0  00000+0 0  9999
2 54743   0.7410  23.3589 0003264  71.0263 263.1532  1.00273203 12992
TIANMU-1 03             
1 55973U 23039A   26170.57232406  .00013129  00000+0  25871-3 0  9992
2 55973  97.5240 344.6344 0004134  93.1623 267.0100 15.47342645181201
TIANMU-1 04             
1 55974U 23039B   26170.62552400  .00012830  00000+0  24765-3 0  9997
2 55974  97.5175 343.8437 0004811  89.3666 270.8135 15.47942227181223
TIANMU-1 05             
1 55975U 23039C   26170.61787407  .00012065  00000+0  23853-3 0  9991
2 55975  97.5221 344.2958 0004066 109.5408 250.6281 15.47268401181199
TIANMU-1 06             
1 55976U 23039D   26170.62905406  .00012778  00000+0  24750-3 0  9992
2 55976  97.5227 344.9457 0004373 104.3816 255.7919 15.47845815181222
FENGYUN 3G              
1 56232U 23055A   26170.61636240  .00019096  00000+0  30957-3 0  9998
2 56232  49.9935 333.5034 0007029 306.8087  53.2234 15.52721773180389
METEOR-M2 3             
1 57166U 23091A   26170.62791417 -.00000025  00000+0  79160-5 0  9998
2 57166  98.6081 225.5564 0004484 149.2831 210.8612 14.24046976154863
TIANMU-1 07             
1 57399U 23101A   26170.58569822  .00004919  00000+0  17282-3 0  9996
2 57399  97.2587 221.1992 0004189 116.6991 243.4679 15.29830479162017
TIANMU-1 08             
1 57400U 23101B   26170.61774233  .00005003  00000+0  17566-3 0  9997
2 57400  97.2576 221.0008 0005656 109.2496 250.9358 15.29835583162011
TIANMU-1 09             
1 57401U 23101C   26170.60110757  .00005074  00000+0  17797-3 0  9996
2 57401  97.2533 220.3990 0004696 121.4245 238.7455 15.29867128162010
TIANMU-1 10             
1 57402U 23101D   26170.56879427  .00005148  00000+0  18064-3 0  9998
2 57402  97.2614 221.4203 0006284 120.0071 240.1794 15.29838838162005
FENGYUN 3F              
1 57490U 23111A   26170.65189909  .00000045  00000+0  41540-4 0  9992
2 57490  98.6835 240.6147 0001588  91.5910 268.5449 14.19939531149217
ARKTIKA-M 2             
1 58584U 23198A   26168.75920439  .00000145  00000+0  00000+0 0  9993
2 58584  63.2243 154.2920 6902344 267.4286  18.7609  2.00612717 18330
TIANMU-1 11             
1 58645U 23205A   26170.60916549  .00004498  00000+0  17228-3 0  9993
2 58645  97.3445 192.1281 0008661   9.0577 351.0817 15.27016331137897
TIANMU-1 12             
1 58646U 23205B   26170.57958687  .00004511  00000+0  17301-3 0  9997
2 58646  97.3435 191.8542 0006433 354.8946   5.2226 15.26981346137875
TIANMU-1 13             
1 58647U 23205C   26170.61199786  .00004511  00000+0  17382-3 0  9999
2 58647  97.3462 192.1591 0005610 331.8247  28.2687 15.26834580137872
TIANMU-1 14             
1 58648U 23205D   26170.59713331  .00004504  00000+0  17329-3 0  9998
2 58648  97.3397 191.3243 0006575 336.0506  24.0426 15.26879231137878
TIANMU-1 19             
1 58660U 23208A   26170.57364979  .00006336  00000+0  21017-3 0  9997
2 58660  97.4508 286.8855 0003670 317.1316  42.9638 15.31603135137696
