OBJECT_NAME,OBJECT_ID,EPOCH,MEAN_MOTION,ECCENTRICITY,INCLINATION,RA_OF_ASC_NODE,ARG_OF_PERICENTER,MEAN_ANOMALY,EPHEMERIS_TYPE,CLASSIFICATION_TYPE,NORAD_CAT_ID,ELEMENT_SET_NO,REV_AT_EPOCH,BSTAR,MEAN_MOTION_DOT,MEAN_MOTION_DDOT
FENGYUN 3D,2017-072A,2026-06-19T14:44:07.601568,14.19739875,.00024873,99.0132,145.0805,59.4790,300.6630,0,U,43010,999,44533,.41631525E-4,.42E-6,0
NOAA 20 (JPSS-1),2017-073A,2026-06-19T12:55:56.085312,14.19512128,.00003346,98.7770,109.9806,113.8592,246.2619,0,U,43013,999,44480,.40903655E-4,.42E-6,0
GOES 17,2018-022A,2026-06-19T12:27:02.191104,1.00269516,.00005442,0.9441,85.6659,28.2288,251.0785,0,U,43226,999,3044,0,-.188E-5,0
SENTINEL-3B,2018-039A,2026-06-19T10:24:46.097568,14.26735265,.00007208,98.6248,237.9340,92.8597,267.2666,0,U,43437,999,42444,.47687251E-4,.72E-6,0
FENGYUN 2H,2018-050A,2026-06-19T14:57:56.811744,1.00269375,.00019375,3.0385,79.0443,138.1032,354.5707,0,U,43491,999,2946,0,-.136E-5,0
METOP-C,2018-087A,2026-06-19T12:45:30.729024,14.21512682,.00018459,98.6644,230.0924,126.4901,233.6447,0,U,43689,999,39516,.5221977E-4,.71E-6,0
GEO-KOMPSAT-2A,2018-100A,2026-06-18T22:05:14.395200,1.00269167,.0001856,0.0487,155.6876,291.5734,279.4528,0,U,43823,999,2764,0,-.35E-5,0
METEOR-M2 2,2019-038A,2026-06-19T13:30:25.475904,14.24366603,.00019929,98.9147,157.8835,44.0778,316.0559,0,U,44387,999,36163,.28327486E-4,.2E-6,0
ARKTIKA-M 1,2021-016A,2026-06-17T11:46:36.471360,2.00622504,.72885287,63.2922,57.5948,269.9420,14.6012,0,U,47719,999,3879,0,-.21E-5,0
FENGYUN 3E,2021-062A,2026-06-19T14:20:30.251040,14.19903605,.00028601,98.7491,173.9789,81.5504,278.5996,0,U,49008,999,25692,-.97174122E-4,-.25E-5,0
GOES 18,2022-021A,2026-06-19T12:28:38.745696,1.00271719,.00004067,0.0356,172.5653,328.1656,177.1607,0,U,51850,999,661,0,.91E-6,0
NOAA 21 (JPSS-2),2022-150A,2026-06-19T13:43:11.367840,14.19565817,.00018005,98.7058,109.3209,148.7419,211.3865,0,U,54234,999,18688,.4350627E-4,.48E-6,0
METEOSAT-12 (MTG-I1),2022-170C,2026-06-19T06:01:50.682720,1.00273203,.00032649,0.7410,23.3589,71.0263,263.1532,0,U,54743,999,1299,0,-.14E-6,0
TIANMU-1 03,2023-039A,2026-06-19T13:44:08.798784,15.47342645,.00041349,97.5240,344.6344,93.1623,267.0100,0,U,55973,999,18120,.25871179E-3,.13129E-3,0
TIANMU-1 04,2023-039B,2026-06-19T15:00:45.273600,15.47942227,.00048115,97.5175,343.8437,89.3666,270.8135,0,U,55974,999,18122,.24765411E-3,.1283E-3,0
TIANMU-1 05,2023-039C,2026-06-19T14:49:44.319648,15.47268401,.00040661,97.5221,344.2958,109.5408,250.6281,0,U,55975,999,18119,.23852803E-3,.12065E-3,0
TIANMU-1 06,2023-039D,2026-06-19T15:05:50.270784,15.47845815,.00043732,97.5227,344.9457,104.3816,255.7919,0,U,55976,999,18122,.24750315E-3,.12778E-3,0
FENGYUN 3G,2023-055A,2026-06-19T14:47:33.711360,15.52721773,.00070293,49.9935,333.5034,306.8087,53.2234,0,U,56232,999,18038,.30957381E-3,.19096E-3,0
METEOR-M2 3,2023-091A,2026-06-19T15:04:11.784288,14.24046976,.00044842,98.6081,225.5564,149.2831,210.8612,0,U,57166,999,15486,.7915993E-5,-.25E-6,0
TIANMU-1 07,2023-101A,2026-06-19T14:03:24.326208,15.29830479,.0004189,97.2587,221.1992,116.6991,243.4679,0,U,57399,999,16201,.17282116E-3,.4919E-4,0
TIANMU-1 08,2023-101B,2026-06-19T14:49:32.937312,15.29835583,.00056569,97.2576,221.0008,109.2496,250.9358,0,U,57400,999,16201,.1756587E-3,.5003E-4,0
TIANMU-1 09,2023-101C,2026-06-19T14:25:35.694048,15.29867128,.00046964,97.2533,220.3990,121.4245,238.7455,0,U,57401,999,16201,.17796806E-3,.5074E-4,0
TIANMU-1 10,2023-101D,2026-06-19T13:39:03.824928,15.29838838,.00062844,97.2614,221.4203,120.0071,240.1794,0,U,57402,999,16200,.18064054E-3,.5148E-4,0
FENGYUN 3F,2023-111A,2026-06-19T15:38:44.081376,14.19939531,.00015886,98.6835,240.6147,91.5910,268.5449,0,U,57490,999,14921,.41539512E-4,.45E-6,0
ARKTIKA-M 2,2023-198A,2026-06-17T18:13:15.259296,2.00612717,.69023443,63.2243,154.2920,267.4286,18.7609,0,U,58584,999,1833,0,.145E-5,0
TIANMU-1 11,2023-205A,2026-06-19T14:37:11.898336,15.27016331,.0008661,97.3445,192.1281,9.0577,351.0817,0,U,58645,999,13789,.17228423E-3,.4498E-4,0
TIANMU-1 12,2023-205B,2026-06-19T13:54:36.305568,15.26981346,.00064331,97.3435,191.8542,354.8946,5.2226,0,U,58646,999,13787,.17301487E-3,.4511E-4,0
TIANMU-1 13,2023-205C,2026-06-19T14:41:16.615104,15.26834580,.00056103,97.3462,192.1591,331.8247,28.2687,0,U,58647,999,13787,.1738198E-3,.4511E-4,0
TIANMU-1 14,2023-205D,2026-06-19T14:19:52.317984,15.26879231,.00065755,97.3397,191.3243,336.0506,24.0426,0,U,58648,999,13787,.17329117E-3,.4504E-4,0
TIANMU-1 19,2023-208A,2026-06-19T13:46:03.341856,15.31603135,.00036709,97.4508,286.8855,317.1316,42.9638,0,U,58660,999,13769,.21017205E-3,.6336E-4,0
